{
  "type": "FeatureCollection",
  "features": [
    {
      "type": "Feature",
      "properties": {
        "norad_id": 31430,
        "name": "FENGYUN 1C DEB",
        "group": "fengyun-1c-debris",
        "lat": 37.889746495761585,
        "lon": 48.70787350481889,
        "alt_km": 784.9767579054287,
        "timestamp": "2025-12-18T13:51:49.966293+00:00",
        "meta_object_name": "FENGYUN 1C DEB",
        "meta_object_id": "1999-025BTS",
        "meta_epoch": "2025-12-18T03:42:29.227680",
        "meta_mean_motion": 14.25626638,
        "meta_eccentricity": 0.00265531,
        "meta_inclination": 98.744,
        "meta_ra_of_asc_node": 55.1647,
        "meta_arg_of_pericenter": 26.5079,
        "meta_mean_anomaly": 1.4053,
        "meta_ephemeris_type": 0,
        "meta_classification_type": "U",
        "meta_norad_cat_id": 31430,
        "meta_element_set_no": 999,
        "meta_rev_at_epoch": 96195,
        "meta_bstar": 0.00074783623,
        "meta_mean_motion_dot": 1.734e-05,
        "meta_mean_motion_ddot": 0,
        "tle_line1": "1 31430U 99025BTS 25352.15450495  .00001734  00000+0  74784-3 0  9993",
        "tle_line2": "2 31430  98.7440  55.1647 0026553  26.5079   1.4053 14.25626638961959"
      },
      "geometry": {
        "type": "Point",
        "coordinates": [
          48.70787350481889,
          37.889746495761585
        ]
      }
    },
    {
      "type": "Feature",
      "properties": {
        "norad_id": 31431,
        "name": "FENGYUN 1C DEB",
        "group": "fengyun-1c-debris",
        "lat": 1.2470902566141664,
        "lon": 60.58815936818762,
        "alt_km": 900.8607321338122,
        "timestamp": "2025-12-18T13:51:49.966303+00:00",
        "meta_object_name": "FENGYUN 1C DEB",
        "meta_object_id": "1999-025BTT",
        "meta_epoch": "2025-12-17T02:48:02.899008",
        "meta_mean_motion": 14.0310372,
        "meta_eccentricity": 0.01337574,
        "meta_inclination": 98.5434,
        "meta_ra_of_asc_node": 239.0286,
        "meta_arg_of_pericenter": 83.045,
        "meta_mean_anomaly": 278.5911,
        "meta_ephemeris_type": 0,
        "meta_classification_type": "U",
        "meta_norad_cat_id": 31431,
        "meta_element_set_no": 999,
        "meta_rev_at_epoch": 94593,
        "meta_bstar": 0.001336432,
        "meta_mean_motion_dot": 2.211e-05,
        "meta_mean_motion_ddot": 0,
        "tle_line1": "1 31431U 99025BTT 25351.11670022  .00002211  00000+0  13364-2 0  9996",
        "tle_line2": "2 31431  98.5434 239.0286 0133757  83.0450 278.5911 14.03103720945937"
      },
      "geometry": {
        "type": "Point",
        "coordinates": [
          60.58815936818762,
          1.2470902566141664
        ]
      }
    },
    {
      "type": "Feature",
      "properties": {
        "norad_id": 31433,
        "name": "FENGYUN 1C DEB",
        "group": "fengyun-1c-debris",
        "lat": -32.94597390567878,
        "lon": 70.30841125008048,
        "alt_km": 880.2558669136206,
        "timestamp": "2025-12-18T13:51:49.966313+00:00",
        "meta_object_name": "FENGYUN 1C DEB",
        "meta_object_id": "1999-025BTV",
        "meta_epoch": "2025-12-18T06:42:51.715008",
        "meta_mean_motion": 14.25490994,
        "meta_eccentricity": 0.01002675,
        "meta_inclination": 98.411,
        "meta_ra_of_asc_node": 255.525,
        "meta_arg_of_pericenter": 13.4547,
        "meta_mean_anomaly": 112.3378,
        "meta_ephemeris_type": 0,
        "meta_classification_type": "U",
        "meta_norad_cat_id": 31433,
        "meta_element_set_no": 999,
        "meta_rev_at_epoch": 95631,
        "meta_bstar": 0.0021022804,
        "meta_mean_motion_dot": 5.197e-05,
        "meta_mean_motion_ddot": 0,
        "tle_line1": "1 31433U 99025BTV 25352.27976522  .00005197  00000+0  21023-2 0  9997",
        "tle_line2": "2 31433  98.4110 255.5250 0100267  13.4547 112.3378 14.25490994956319"
      },
      "geometry": {
        "type": "Point",
        "coordinates": [
          70.30841125008048,
          -32.94597390567878
        ]
      }
    },
    {
      "type": "Feature",
      "properties": {
        "norad_id": 31435,
        "name": "FENGYUN 1C DEB",
        "group": "fengyun-1c-debris",
        "lat": 21.666284888486075,
        "lon": -11.511027140019042,
        "alt_km": 608.6131184923852,
        "timestamp": "2025-12-18T13:51:49.966323+00:00",
        "meta_object_name": "FENGYUN 1C DEB",
        "meta_object_id": "1999-025BTX",
        "meta_epoch": "2025-12-17T22:16:16.879296",
        "meta_mean_motion": 14.5344893,
        "meta_eccentricity": 0.01492409,
        "meta_inclination": 99.0367,
        "meta_ra_of_asc_node": 164.1637,
        "meta_arg_of_pericenter": 164.3853,
        "meta_mean_anomaly": 196.2019,
        "meta_ephemeris_type": 0,
        "meta_classification_type": "U",
        "meta_norad_cat_id": 31435,
        "meta_element_set_no": 999,
        "meta_rev_at_epoch": 98448,
        "meta_bstar": 0.00019866345,
        "meta_mean_motion_dot": 8.98e-06,
        "meta_mean_motion_ddot": 0,
        "tle_line1": "1 31435U 99025BTX 25351.92797314  .00000898  00000+0  19866-3 0  9996",
        "tle_line2": "2 31435  99.0367 164.1637 0149240 164.3853 196.2019 14.53448930984482"
      },
      "geometry": {
        "type": "Point",
        "coordinates": [
          -11.511027140019042,
          21.666284888486075
        ]
      }
    },
    {
      "type": "Feature",
      "properties": {
        "norad_id": 31436,
        "name": "FENGYUN 1C DEB",
        "group": "fengyun-1c-debris",
        "lat": -61.750521131364565,
        "lon": 9.36350792918584,
        "alt_km": 564.125952330468,
        "timestamp": "2025-12-18T13:51:49.966334+00:00",
        "meta_object_name": "FENGYUN 1C DEB",
        "meta_object_id": "1999-025BTY",
        "meta_epoch": "2025-12-18T02:12:23.724000",
        "meta_mean_motion": 14.94196888,
        "meta_eccentricity": 0.00423516,
        "meta_inclination": 98.8804,
        "meta_ra_of_asc_node": 205.7321,
        "meta_arg_of_pericenter": 224.8864,
        "meta_mean_anomaly": 286.7554,
        "meta_ephemeris_type": 0,
        "meta_classification_type": "U",
        "meta_norad_cat_id": 31436,
        "meta_element_set_no": 999,
        "meta_rev_at_epoch": 96956,
        "meta_bstar": 0.0037078576,
        "meta_mean_motion_dot": 0.00040574,
        "meta_mean_motion_ddot": 0,
        "tle_line1": "1 31436U 99025BTY 25352.09194125  .00040574  00000+0  37079-2 0  9997",
        "tle_line2": "2 31436  98.8804 205.7321 0042351 224.8864 286.7554 14.94196888969565"
      },
      "geometry": {
        "type": "Point",
        "coordinates": [
          9.36350792918584,
          -61.750521131364565
        ]
      }
    },
    {
      "type": "Feature",
      "properties": {
        "norad_id": 31437,
        "name": "FENGYUN 1C DEB",
        "group": "fengyun-1c-debris",
        "lat": 58.76094153423026,
        "lon": -91.2186480557159,
        "alt_km": 748.3680410152438,
        "timestamp": "2025-12-18T13:51:49.966344+00:00",
        "meta_object_name": "FENGYUN 1C DEB",
        "meta_object_id": "1999-025BTZ",
        "meta_epoch": "2025-12-16T18:01:38.589312",
        "meta_mean_motion": 14.42571554,
        "meta_eccentricity": 0.0016012,
        "meta_inclination": 98.8644,
        "meta_ra_of_asc_node": 71.9744,
        "meta_arg_of_pericenter": 236.7616,
        "meta_mean_anomaly": 123.2038,
        "meta_ephemeris_type": 0,
        "meta_classification_type": "U",
        "meta_norad_cat_id": 31437,
        "meta_element_set_no": 999,
        "meta_rev_at_epoch": 96568,
        "meta_bstar": 0.0017299605,
        "meta_mean_motion_dot": 5.707e-05,
        "meta_mean_motion_ddot": 0,
        "tle_line1": "1 31437U 99025BTZ 25350.75114108  .00005707  00000+0  17300-2 0  9996",
        "tle_line2": "2 31437  98.8644  71.9744 0016012 236.7616 123.2038 14.42571554965683"
      },
      "geometry": {
        "type": "Point",
        "coordinates": [
          -91.2186480557159,
          58.76094153423026
        ]
      }
    },
    {
      "type": "Feature",
      "properties": {
        "norad_id": 31439,
        "name": "FENGYUN 1C DEB",
        "group": "fengyun-1c-debris",
        "lat": 0.12725067219703273,
        "lon": -1.6072967672555436,
        "alt_km": 994.437362018667,
        "timestamp": "2025-12-18T13:51:49.966354+00:00",
        "meta_object_name": "FENGYUN 1C DEB",
        "meta_object_id": "1999-025BUB",
        "meta_epoch": "2025-12-16T06:53:28.781952",
        "meta_mean_motion": 13.95585021,
        "meta_eccentricity": 0.01379888,
        "meta_inclination": 98.9165,
        "meta_ra_of_asc_node": 356.1962,
        "meta_arg_of_pericenter": 152.0725,
        "meta_mean_anomaly": 227.5292,
        "meta_ephemeris_type": 0,
        "meta_classification_type": "U",
        "meta_norad_cat_id": 31439,
        "meta_element_set_no": 999,
        "meta_rev_at_epoch": 63282,
        "meta_bstar": 0.00051197114,
        "meta_mean_motion_dot": 7.12e-06,
        "meta_mean_motion_ddot": 0,
        "tle_line1": "1 31439U 99025BUB 25350.28713868  .00000712  00000+0  51197-3 0  9998",
        "tle_line2": "2 31439  98.9165 356.1962 0137988 152.0725 227.5292 13.95585021632829"
      },
      "geometry": {
        "type": "Point",
        "coordinates": [
          -1.6072967672555436,
          0.12725067219703273
        ]
      }
    }
  ]
}